[{"OBJECT_NAME":"STARLINK-31734","OBJECT_ID":"2024-074A","EPOCH":"2026-03-09T02:57:30.749184","MEAN_MOTION":15.27590006,"ECCENTRICITY":7.405e-5,"INCLINATION":42.9996,"RA_OF_ASC_NODE":335.8332,"ARG_OF_PERICENTER":303.0667,"MEAN_ANOMALY":57.0114,"EPHEMERIS_TYPE":0,"CLASSIFICATION_TYPE":"U","NORAD_CAT_ID":59534,"ELEMENT_SET_NO":999,"REV_AT_EPOCH":10605,"BSTAR":4.314832e-5,"MEAN_MOTION_DOT":9.26e-6,"MEAN_MOTION_DDOT":0},{"OBJECT_NAME":"NUSAT-45 (UZMASAT-1)","OBJECT_ID":"2025-009AH","EPOCH":"2026-03-09T03:44:32.024544","MEAN_MOTION":15.26632732,"ECCENTRICITY":0.00011721,"INCLINATION":97.3985,"RA_OF_ASC_NODE":150.3373,"ARG_OF_PERICENTER":1.4631,"MEAN_ANOMALY":358.6611,"EPHEMERIS_TYPE":0,"CLASSIFICATION_TYPE":"U","NORAD_CAT_ID":62640,"ELEMENT_SET_NO":999,"REV_AT_EPOCH":6363,"BSTAR":0.00048087023,"MEAN_MOTION_DOT":0.00012539,"MEAN_MOTION_DDOT":0}]
